OBJECT_NAME,OBJECT_ID,EPOCH,MEAN_MOTION,ECCENTRICITY,INCLINATION,RA_OF_ASC_NODE,ARG_OF_PERICENTER,MEAN_ANOMALY,EPHEMERIS_TYPE,CLASSIFICATION_TYPE,NORAD_CAT_ID,ELEMENT_SET_NO,REV_AT_EPOCH,BSTAR,MEAN_MOTION_DOT,MEAN_MOTION_DDOT
QIANFAN-238,2026-155V,2026-07-18T05:43:09.616800,14.26785865,.00304228,89.0064,60.5994,213.3775,146.5502,0,U,69867,999,181,.67557518E-4,.179E-5,0
CZ-8A R/B,2026-155W,2026-07-18T06:12:13.754592,14.48271162,.01063989,88.9656,60.5231,92.7500,268.5890,0,U,69868,999,183,.70120203E-4,.3E-5,0
STARLINK-37886,2026-157A,2026-07-18T06:00:02.000160,15.80892828,.00010273,53.1599,280.5216,85.1389,128.4987,0,U,69943,999,264,-.11337275E-3,-.23035E-3,0
STARLINK-37937,2026-157B,2026-07-18T06:00:02.000160,15.80957976,.0001253,53.1598,280.5027,59.9827,162.7255,0,U,69944,999,264,-.7911401E-3,-.154691E-2,0
STARLINK-37903,2026-157C,2026-07-18T06:00:02.000160,15.80881161,.00010924,53.1596,280.4932,80.3539,146.9028,0,U,69945,999,264,-.74448684E-4,-.15372E-3,0
STARLINK-37905,2026-157D,2026-07-18T06:00:02.000160,15.80890734,.00006738,53.1595,280.4531,118.4672,128.0777,0,U,69946,999,264,-.25937014E-3,-.51624E-3,0
STARLINK-37904,2026-157E,2026-07-18T06:00:02.000160,15.80881863,.00006426,53.1594,280.4451,97.0294,153.4156,0,U,69947,999,264,-.63617571E-4,-.13239E-3,0
STARLINK-37891,2026-157F,2026-07-18T06:00:02.000160,15.80839718,.00007165,53.1591,280.4363,103.6370,151.0949,0,U,69948,999,264,.35694183E-3,.70215E-3,0
STARLINK-37923,2026-157G,2026-07-18T06:00:02.000160,15.80898297,.00007901,53.1593,280.4008,95.1901,176.6522,0,U,69949,999,264,-.22617809E-3,-.45156E-3,0
STARLINK-37895,2026-157H,2026-07-18T06:00:02.000160,15.81006396,.00012059,53.1592,280.3853,81.8975,197.3577,0,U,69950,999,264,-.11729049E-2,-.227606E-2,0
STARLINK-37841,2026-157J,2026-07-18T06:00:02.000160,15.82220224,.00010679,53.1594,280.3633,96.6085,193.1254,0,U,69951,999,264,-.78060631E-2,-.1454089E-1,0
STARLINK-37899,2026-157K,2026-07-18T06:00:02.000160,15.82028585,.00009503,53.1595,280.3393,93.0102,208.1883,0,U,69952,999,264,-.80411706E-2,-.1480771E-1,0
STARLINK-37900,2026-157L,2026-07-18T06:00:02.000160,15.82319036,.00012297,53.1595,280.3319,94.3245,210.4730,0,U,69953,999,264,-.95202009E-2,-.1773397E-1,0
STARLINK-37882,2026-157M,2026-07-18T06:00:02.000160,15.83045177,.00007587,53.1593,280.3108,64.9554,249.9655,0,U,69954,999,264,-.12251349E-1,-.2324727E-1,0
STARLINK-37928,2026-157N,2026-07-18T06:00:02.000160,15.82773159,.00008587,53.1590,280.3088,88.8078,227.0641,0,U,69955,999,264,-.11327189E-1,-.2100383E-1,0
STARLINK-37824,2026-157P,2026-07-18T06:00:02.000160,15.83001864,.00010595,53.1592,280.3065,113.7825,203.3450,0,U,69956,999,264,-.12499292E-1,-.2361388E-1,0
STARLINK-37919,2026-157Q,2026-07-18T06:00:02.000160,15.82844299,.00006619,53.1593,280.3040,88.0105,230.2006,0,U,69957,999,264,-.11595741E-1,-.2148543E-1,0
STARLINK-37964,2026-157R,2026-07-18T06:00:02.000160,15.83198310,.00004035,53.1594,280.2912,107.1010,217.3089,0,U,69958,999,264,-.13343962E-1,-.2516357E-1,0
STARLINK-37907,2026-157S,2026-07-18T06:00:02.000160,15.83610109,.00008348,53.1592,280.2726,78.7855,254.5764,0,U,69959,999,264,-.1026354E-1,-.199764E-1,0
STARLINK-37901,2026-157T,2026-07-18T06:00:02.000160,15.83766775,.00007652,53.1590,280.2594,106.6750,232.9455,0,U,69960,999,264,-.1070703E-1,-.2084862E-1,0
STARLINK-37910,2026-157U,2026-07-18T06:00:02.000160,15.84117216,.00005879,53.1593,280.2421,108.7604,239.1500,0,U,69961,999,264,-.10624828E-1,-.2101129E-1,0
STARLINK-37925,2026-157V,2026-07-18T06:00:02.000160,15.84151446,.00006374,53.1593,280.2380,100.1955,249.6287,0,U,69962,999,264,-.10698584E-1,-.2116586E-1,0
STARLINK-37931,2026-157W,2026-07-18T06:00:02.000160,15.84104295,.00005062,53.1593,280.2314,93.5078,259.7161,0,U,69963,999,264,-.10794536E-1,-.2128428E-1,0
STARLINK-37914,2026-157X,2026-07-18T06:00:02.000160,15.84669406,.00007676,53.1589,280.1994,76.2259,292.1176,0,U,69964,999,264,-.10695537E-1,-.216191E-1,0
STARLINK-37840,2026-157Y,2026-07-18T06:00:02.000160,15.86045111,.00007866,53.1589,280.1741,81.1198,299.4822,0,U,69965,999,264,-.1005067E-1,-.2171716E-1,0
STARLINK-37894,2026-157Z,2026-07-18T06:00:02.000160,15.84999868,.00008835,53.1588,280.1804,82.1771,295.3890,0,U,69966,999,264,-.10858592E-1,-.2219861E-1,0
STARLINK-37875,2026-157AA,2026-07-18T06:00:02.000160,15.85409429,.00006508,53.1586,280.1618,82.4037,304.0104,0,U,69967,999,264,-.10620147E-1,-.2215593E-1,0
STARLINK-36218,2026-157AB,2026-07-18T06:00:02.000160,15.86114721,.00008282,53.1584,280.1400,81.3053,315.5095,0,U,69968,999,229,-.10075911E-1,-.2182739E-1,0
STARLINK-37921,2026-157AC,2026-07-18T06:00:02.000160,15.86656590,.00008727,53.1584,280.1068,89.0469,323.6037,0,U,69969,999,264,-.98840221E-2,-.2196995E-1,0
STARLINK-37896,2026-157AD,2026-07-18T06:00:02.000160,15.86621033,.00008702,53.1584,280.1042,88.6170,325.3163,0,U,69970,999,264,-.9931713E-2,-.2202648E-1,0
