QIANFAN-238             
1 69867U 26155V   26199.23830575  .00000179  00000+0  67558-4 0  9996
2 69867  89.0064  60.5994 0030422 213.3775 146.5502 14.26785865  1812
CZ-8A R/B               
1 69868U 26155W   26199.25849253  .00000300  00000+0  70120-4 0  9997
2 69868  88.9656  60.5231 0106398  92.7500 268.5890 14.48271162  1834
STARLINK-37886          
1 69943U 26157A   26199.25002315 -.00023035  00000+0 -11337-3 0  9999
2 69943  53.1599 280.5216 0001027  85.1389 128.4987 15.80892828  2645
STARLINK-37937          
1 69944U 26157B   26199.25002315 -.00154691  00000+0 -79114-3 0  9990
2 69944  53.1598 280.5027 0001253  59.9827 162.7255 15.80957976  2647
STARLINK-37903          
1 69945U 26157C   26199.25002315 -.00015372  00000+0 -74449-4 0  9990
2 69945  53.1596 280.4932 0001092  80.3539 146.9028 15.80881161  2643
STARLINK-37905          
1 69946U 26157D   26199.25002315 -.00051624  00000+0 -25937-3 0  9998
2 69946  53.1595 280.4531 0000673 118.4672 128.0777 15.80890734  2641
STARLINK-37904          
1 69947U 26157E   26199.25002315 -.00013239  00000+0 -63618-4 0  9998
2 69947  53.1594 280.4451 0000642  97.0294 153.4156 15.80881863  2646
STARLINK-37891          
1 69948U 26157F   26199.25002315  .00070215  00000+0  35694-3 0  9996
2 69948  53.1591 280.4363 0000716 103.6370 151.0949 15.80839718  2643
STARLINK-37923          
1 69949U 26157G   26199.25002315 -.00045156  00000+0 -22618-3 0  9997
2 69949  53.1593 280.4008 0000790  95.1901 176.6522 15.80898297  2646
STARLINK-37895          
1 69950U 26157H   26199.25002315 -.00227606  00000+0 -11729-2 0  9991
2 69950  53.1592 280.3853 0001205  81.8975 197.3577 15.81006396  2641
STARLINK-37841          
1 69951U 26157J   26199.25002315 -.01454089  00000+0 -78061-2 0  9992
2 69951  53.1594 280.3633 0001067  96.6085 193.1254 15.82220224  2647
STARLINK-37899          
1 69952U 26157K   26199.25002315 -.01480771  00000+0 -80412-2 0  9993
2 69952  53.1595 280.3393 0000950  93.0102 208.1883 15.82028585  2644
STARLINK-37900          
1 69953U 26157L   26199.25002315 -.01773397  00000+0 -95202-2 0  9996
2 69953  53.1595 280.3319 0001229  94.3245 210.4730 15.82319036  2646
STARLINK-37882          
1 69954U 26157M   26199.25002315 -.02324727  00000+0 -12251-1 0  9999
2 69954  53.1593 280.3108 0000758  64.9554 249.9655 15.83045177  2649
STARLINK-37928          
1 69955U 26157N   26199.25002315 -.02100383  00000+0 -11327-1 0  9993
2 69955  53.1590 280.3088 0000858  88.8078 227.0641 15.82773159  2640
STARLINK-37824          
1 69956U 26157P   26199.25002315 -.02361388  00000+0 -12499-1 0  9999
2 69956  53.1592 280.3065 0001059 113.7825 203.3450 15.83001864  2643
STARLINK-37919          
1 69957U 26157Q   26199.25002315 -.02148543  00000+0 -11596-1 0  9993
2 69957  53.1593 280.3040 0000661  88.0105 230.2006 15.82844299  2643
STARLINK-37964          
1 69958U 26157R   26199.25002315 -.02516357  00000+0 -13344-1 0  9999
2 69958  53.1594 280.2912 0000403 107.1010 217.3089 15.83198310  2648
STARLINK-37907          
1 69959U 26157S   26199.25002315 -.01997640  00000+0 -10264-1 0  9995
2 69959  53.1592 280.2726 0000834  78.7855 254.5764 15.83610109  2646
STARLINK-37901          
1 69960U 26157T   26199.25002315 -.02084862  00000+0 -10707-1 0  9993
2 69960  53.1590 280.2594 0000765 106.6750 232.9455 15.83766775  2645
STARLINK-37910          
1 69961U 26157U   26199.25002315 -.02101129  00000+0 -10625-1 0  9999
2 69961  53.1593 280.2421 0000587 108.7604 239.1500 15.84117216  2642
STARLINK-37925          
1 69962U 26157V   26199.25002315 -.02116586  00000+0 -10699-1 0  9994
2 69962  53.1593 280.2380 0000637 100.1955 249.6287 15.84151446  2649
STARLINK-37931          
1 69963U 26157W   26199.25002315 -.02128428  00000+0 -10795-1 0  9990
2 69963  53.1593 280.2314 0000506  93.5078 259.7161 15.84104295  2646
STARLINK-37914          
1 69964U 26157X   26199.25002315 -.02161910  00000+0 -10696-1 0  9994
2 69964  53.1589 280.1994 0000767  76.2259 292.1176 15.84669406  2640
STARLINK-37840          
1 69965U 26157Y   26199.25002315 -.02171716  00000+0 -10051-1 0  9995
2 69965  53.1589 280.1741 0000786  81.1198 299.4822 15.86045111  2640
STARLINK-37894          
1 69966U 26157Z   26199.25002315 -.02219861  00000+0 -10859-1 0  9996
2 69966  53.1588 280.1804 0000883  82.1771 295.3890 15.84999868  2641
STARLINK-37875          
1 69967U 26157AA  26199.25002315 -.02215593  00000+0 -10620-1 0  9991
2 69967  53.1586 280.1618 0000650  82.4037 304.0104 15.85409429  2649
STARLINK-36218          
1 69968U 26157AB  26199.25002315 -.02182739  00000+0 -10076-1 0  9992
2 69968  53.1584 280.1400 0000828  81.3053 315.5095 15.86114721  2296
STARLINK-37921          
1 69969U 26157AC  26199.25002315 -.02196995  00000+0 -98840-2 0  9998
2 69969  53.1584 280.1068 0000872  89.0469 323.6037 15.86656590  2642
STARLINK-37896          
1 69970U 26157AD  26199.25002315 -.02202648  00000+0 -99317-2 0  9993
2 69970  53.1584 280.1042 0000870  88.6170 325.3163 15.86621033  2641
